STARLINK-37892          
1 69485U 26131H   26187.61678124  .00109579  00000+0  56622-3 0  9998
2 69485  97.2849 209.0344 0000754  81.8627 278.2727 15.80794617  5236
STARLINK-37893          
1 69486U 26131J   26187.55271517  .00183522  00000+0  93924-3 0  9993
2 69486  97.2853 208.9692 0001380  94.8147 265.3279 15.80806533  5222
STARLINK-37842          
1 69487U 26131K   26187.80544910 -.00891261  00000+0 -55363-2 0  9994
2 69487  97.2854 209.2374 0000180  69.2874 290.8413 15.79239994  5261
STARLINK-37449          
1 69488U 26131L   26184.70263874  .00333366  00000+0  16560-2 0  9999
2 69488  97.2838 205.9575 0001406  75.3533 284.7891 15.81072024  4771
STARLINK-37831          
1 69489U 26131M   26185.52481382  .00571370  00000+0  27575-2 0  9994
2 69489  97.2833 206.8290 0001391  50.2531 309.8859 15.81093753  4904
STARLINK-37879          
1 69490U 26131N   26187.80325093 -.00891628  00000+0 -55847-2 0  9991
2 69490  97.2845 209.2414 0000901 148.1187 212.0135 15.79052200  5265
STARLINK-37856          
1 69491U 26131P   26187.62065832  .00219545  00000+0  11181-2 0  9997
2 69491  97.2849 209.0293 0000631 150.5843 209.5460 15.80820069  5236
STARLINK-37568          
1 69492U 26131Q   26187.80173395 -.00887861  00000+0 -55485-2 0  9991
2 69492  97.2854 209.2430 0002683 205.9938 154.1195 15.79074517  5267
STARLINK-37855          
1 69493U 26131R   26187.36431248  .00427890  00000+0  21097-2 0  9999
2 69493  97.2824 208.7737 0000828 355.9293   4.1968 15.80992286  5196
STARLINK-37854          
1 69494U 26131S   26186.79591955  .00300115  00000+0  15093-2 0  9997
2 69494  97.2846 208.1608 0001070  81.5511 278.5878 15.80887891  5100
STARLINK-37789          
1 69495U 26131T   26187.79916940  .00000105  00000+0  12936-5 0  9996
2 69495  97.2847 209.2452 0001062 151.3228 208.8099 15.80747736  4005
STARLINK-37839          
1 69496U 26131U   26187.29988143  .00287467  00000+0  14473-2 0  9999
2 69496  97.2852 208.7010 0001268 339.6601  20.4617 15.80895416  3923
STARLINK-37798          
1 69497U 26131V   26187.60850411  .00258225  00000+0  13090-2 0  9995
2 69497  97.2845 209.0459 0001532  55.0117 305.1295 15.80821438  3975
STARLINK-37853          
1 69498U 26131W   26187.85795024  .00186681  00000+0  95192-3 0  9991
2 69498  97.2849 209.3190 0001013  82.2789 277.8594 15.80878408  4018
STARLINK-37849          
1 69499U 26131X   26187.85942448 -.01100775  00000+0 -73334-2 0  9992
2 69499  97.2850 209.3166 0001122  29.9302 330.2029 15.77797257  4019
STARLINK-37835          
1 69500U 26131Y   26187.79736325 -.01058378  00000+0 -67823-2 0  9990
2 69500  97.2849 209.2486 0000553  34.1574 325.9729 15.78570974  4003
STARLINK-37843          
1 69501U 26131Z   26187.73364532 -.00371179  00000+0 -22897-2 0  9990
2 69501  97.2846 209.1821 0002313 219.1255 140.9845 15.78046243  3998
STARS-X                 
1 69502U 26132A   26187.64611769  .00001592  00000+0  13573-3 0  9998
2 69502  97.6881 251.0633 0013807 196.1421 163.9364 14.99090739  3697
PETREL                  
1 69503U 26132B   26187.77818598  .00001196  00000+0  10302-3 0  9999
2 69503  97.6910 251.2065 0013705 197.6301 162.4448 14.99170743  3716
BRO-22                  
1 69504U 26132C   26187.83464884  .00001079  00000+0  91878-4 0  9990
2 69504  97.6835 251.2633 0015665 211.3248 148.7044 14.99791317  3721
HORN-L                  
1 69505U 26132D   26187.75657419  .00002886  00000+0  18125-3 0  9990
2 69505  97.6850 251.3568 0023891 235.1742 124.7239 15.09869061  3724
VERTECS                 
1 69506U 26132E   26187.41582301  .00002357  00000+0  18913-3 0  9999
2 69506  97.6838 250.9033 0014650 235.9770 124.0063 15.00969821  3651
HORN-R                  
1 69507U 26132F   26187.65238120  .00001661  00000+0  12091-3 0  9991
2 69507  97.6795 251.1816 0017329 233.9883 125.9737 15.05068508  3694
STARLINK-37536          
1 69508U 26133A   26187.75003471 -.00003004  00000+0 -45974-4 0  9995
2 69508  53.1593 225.2328 0001065  69.6681 341.9384 15.49314257  5129
STARLINK-37341          
1 69509U 26133B   26187.75003471 -.00269430  00000+0 -49708-2 0  9990
2 69509  53.1593 225.2534 0001636  84.9616 316.4171 15.49501142  5123
STARLINK-36536          
1 69510U 26133C   26187.75003471 -.02441874  00000+0 -38935-1 0  9997
2 69510  53.1596 224.5393 0000566  89.4911 304.4619 15.56426592  5062
STARLINK-37420          
1 69511U 26133D   26187.75003471 -.00706214  00000+0 -97683-2 0  9994
2 69511  53.1595 224.3369 0001464  63.6045  69.3571 15.58862988  5017
STARLINK-37511          
1 69512U 26133E   26187.75003471 -.01714656  00000+0 -24801-1 0  9996
2 69512  53.1592 224.3423 0001464  66.6947  63.6433 15.58323493  5017
STARLINK-37552          
1 69513U 26133F   26187.75003471 -.00001930  00000+0 -26629-4 0  9993
2 69513  53.1595 225.2448 0002126  48.1542 356.4255 15.49314281  5010
STARLINK-37607          
1 69514U 26133G   26187.75003471 -.02461383  00000+0 -40660-1 0  9996
2 69514  53.1598 224.3521 0001298  55.5792  69.8429 15.55506325  5011
