OBJECT_NAME,OBJECT_ID,EPOCH,MEAN_MOTION,ECCENTRICITY,INCLINATION,RA_OF_ASC_NODE,ARG_OF_PERICENTER,MEAN_ANOMALY,EPHEMERIS_TYPE,CLASSIFICATION_TYPE,NORAD_CAT_ID,ELEMENT_SET_NO,REV_AT_EPOCH,BSTAR,MEAN_MOTION_DOT,MEAN_MOTION_DDOT
STARLINK-37892,2026-131H,2026-07-06T14:48:09.899136,15.80794617,.0000754,97.2849,209.0344,81.8627,278.2727,0,U,69485,999,523,.56622E-3,.109579E-2,0
STARLINK-37893,2026-131J,2026-07-06T13:15:54.590688,15.80806533,.000138,97.2853,208.9692,94.8147,265.3279,0,U,69486,999,522,.93924E-3,.183522E-2,0
STARLINK-37842,2026-131K,2026-07-06T19:19:50.802240,15.79239994,.000018,97.2854,209.2374,69.2874,290.8413,0,U,69487,999,526,-.55363E-2,-.891261E-2,0
STARLINK-37449,2026-131L,2026-07-03T16:51:47.987136,15.81072024,.0001406,97.2838,205.9575,75.3533,284.7891,0,U,69488,999,477,.1656E-2,.333366E-2,0
STARLINK-37831,2026-131M,2026-07-04T12:35:43.914048,15.81093753,.0001391,97.2833,206.8290,50.2531,309.8859,0,U,69489,999,490,.27575E-2,.57137E-2,0
STARLINK-37879,2026-131N,2026-07-06T19:16:40.880352,15.79052200,.0000901,97.2845,209.2414,148.1187,212.0135,0,U,69490,999,526,-.55847E-2,-.891628E-2,0
STARLINK-37856,2026-131P,2026-07-06T14:53:44.878848,15.80820069,.0000631,97.2849,209.0293,150.5843,209.5460,0,U,69491,999,523,.11181E-2,.219545E-2,0
STARLINK-37568,2026-131Q,2026-07-06T19:14:29.813280,15.79074517,.0002683,97.2854,209.2430,205.9938,154.1195,0,U,69492,999,526,-.55485E-2,-.887861E-2,0
STARLINK-37855,2026-131R,2026-07-06T08:44:36.598272,15.80992286,.00008286,97.2824,208.7737,355.9293,4.1968,0,U,69493,999,519,.21097289E-2,.42789E-2,0
STARLINK-37854,2026-131S,2026-07-05T19:06:07.449120,15.80887891,.000107,97.2846,208.1608,81.5511,278.5878,0,U,69494,999,510,.15093E-2,.300115E-2,0
STARLINK-37789,2026-131T,2026-07-06T19:10:48.236160,15.80747736,.0001062,97.2847,209.2452,151.3228,208.8099,0,U,69495,999,400,.12936E-5,.105E-5,0
STARLINK-37839,2026-131U,2026-07-06T07:11:49.755552,15.80895416,.00012689,97.2852,208.7010,339.6601,20.4617,0,U,69496,999,392,.14473463E-2,.287467E-2,0
STARLINK-37798,2026-131V,2026-07-06T14:36:14.755104,15.80821438,.0001532,97.2845,209.0459,55.0117,305.1295,0,U,69497,999,397,.1309E-2,.258225E-2,0
STARLINK-37853,2026-131W,2026-07-06T20:35:26.900736,15.80878408,.0001013,97.2849,209.3190,82.2789,277.8594,0,U,69498,999,401,.95192E-3,.186681E-2,0
STARLINK-37849,2026-131X,2026-07-06T20:37:34.275072,15.77797257,.0001122,97.2850,209.3166,29.9302,330.2029,0,U,69499,999,401,-.73334E-2,-.1100775E-1,0
STARLINK-37835,2026-131Y,2026-07-06T19:08:12.184800,15.78570974,.0000553,97.2849,209.2486,34.1574,325.9729,0,U,69500,999,400,-.67823E-2,-.1058378E-1,0
STARLINK-37843,2026-131Z,2026-07-06T17:36:26.955648,15.78046243,.0002313,97.2846,209.1821,219.1255,140.9845,0,U,69501,999,399,-.22897E-2,-.371179E-2,0
STARS-X,2026-132A,2026-07-06T15:30:24.568416,14.99090739,.0013807,97.6881,251.0633,196.1421,163.9364,0,U,69502,999,369,.13573E-3,.1592E-4,0
PETREL,2026-132B,2026-07-06T18:40:35.268672,14.99170743,.0013705,97.6910,251.2065,197.6301,162.4448,0,U,69503,999,371,.10302E-3,.1196E-4,0
BRO-22,2026-132C,2026-07-06T20:01:53.659776,14.99791317,.0015665,97.6835,251.2633,211.3248,148.7044,0,U,69504,999,372,.91878E-4,.1079E-4,0
HORN-L,2026-132D,2026-07-06T18:09:28.010016,15.09869061,.0023891,97.6850,251.3568,235.1742,124.7239,0,U,69505,999,372,.18125E-3,.2886E-4,0
VERTECS,2026-132E,2026-07-06T09:58:47.108064,15.00969821,.001465,97.6838,250.9033,235.9770,124.0063,0,U,69506,999,365,.18913E-3,.2357E-4,0
HORN-R,2026-132F,2026-07-06T15:39:25.735680,15.05068508,.0017329,97.6795,251.1816,233.9883,125.9737,0,U,69507,999,369,.12091E-3,.1661E-4,0
STARLINK-37536,2026-133A,2026-07-06T18:00:02.998944,15.49314257,.0001065,53.1593,225.2328,69.6681,341.9384,0,U,69508,999,512,-.45974E-4,-.3004E-4,0
STARLINK-37341,2026-133B,2026-07-06T18:00:02.998944,15.49501142,.0001636,53.1593,225.2534,84.9616,316.4171,0,U,69509,999,512,-.49708E-2,-.26943E-2,0
STARLINK-36536,2026-133C,2026-07-06T18:00:02.998944,15.56426592,.0000566,53.1596,224.5393,89.4911,304.4619,0,U,69510,999,506,-.38935E-1,-.2441874E-1,0
STARLINK-37420,2026-133D,2026-07-06T18:00:02.998944,15.58862988,.0001464,53.1595,224.3369,63.6045,69.3571,0,U,69511,999,501,-.97683E-2,-.706214E-2,0
STARLINK-37511,2026-133E,2026-07-06T18:00:02.998944,15.58323493,.0001464,53.1592,224.3423,66.6947,63.6433,0,U,69512,999,501,-.24801E-1,-.1714656E-1,0
STARLINK-37552,2026-133F,2026-07-06T18:00:02.998944,15.49314281,.0002126,53.1595,225.2448,48.1542,356.4255,0,U,69513,999,501,-.26629E-4,-.193E-4,0
STARLINK-37607,2026-133G,2026-07-06T18:00:02.998944,15.55506325,.0001298,53.1598,224.3521,55.5792,69.8429,0,U,69514,999,501,-.4066E-1,-.2461383E-1,0
